CCSDS_OMM_VERS = 2.0
CREATION_DATE  = 
ORIGINATOR     = 

OBJECT_NAME    = STARLINK-36538
OBJECT_ID      = 2026-012V
CENTER_NAME    = EARTH
REF_FRAME      = TEME
TIME_SYSTEM    = UTC
MEAN_ELEMENT_THEORY = SGP/SGP4

EPOCH          = 2026-01-19T00:25:32.539872
MEAN_MOTION    = 16.05267929
ECCENTRICITY   = .00077
INCLINATION    = 43.0100
RA_OF_ASC_NODE = 248.3700
ARG_OF_PERICENTER = 319.9700
MEAN_ANOMALY   = 13.3500

EPHEMERIS_TYPE = 0
CLASSIFICATION_TYPE = U
NORAD_CAT_ID   = 67512
ELEMENT_SET_NO = 999
REV_AT_EPOCH   = 1
BSTAR          = 0
MEAN_MOTION_DOT = -.2725E-4
MEAN_MOTION_DDOT = .8614162E-5

CCSDS_OMM_VERS = 2.0
CREATION_DATE  = 
ORIGINATOR     = 

OBJECT_NAME    = STARLINK-36531
OBJECT_ID      = 2026-012W
CENTER_NAME    = EARTH
REF_FRAME      = TEME
TIME_SYSTEM    = UTC
MEAN_ELEMENT_THEORY = SGP/SGP4

EPOCH          = 2026-01-19T00:25:32.539872
MEAN_MOTION    = 16.05267929
ECCENTRICITY   = .00077
INCLINATION    = 43.0100
RA_OF_ASC_NODE = 248.3700
ARG_OF_PERICENTER = 319.9700
MEAN_ANOMALY   = 13.3500

EPHEMERIS_TYPE = 0
CLASSIFICATION_TYPE = U
NORAD_CAT_ID   = 67513
ELEMENT_SET_NO = 999
REV_AT_EPOCH   = 1
BSTAR          = 0
MEAN_MOTION_DOT = -.2725E-4
MEAN_MOTION_DDOT = .8614162E-5

CCSDS_OMM_VERS = 2.0
CREATION_DATE  = 
ORIGINATOR     = 

OBJECT_NAME    = STARLINK-36530
OBJECT_ID      = 2026-012X
CENTER_NAME    = EARTH
REF_FRAME      = TEME
TIME_SYSTEM    = UTC
MEAN_ELEMENT_THEORY = SGP/SGP4

EPOCH          = 2026-01-19T00:25:32.539872
MEAN_MOTION    = 16.05267929
ECCENTRICITY   = .00077
INCLINATION    = 43.0100
RA_OF_ASC_NODE = 248.3700
ARG_OF_PERICENTER = 319.9700
MEAN_ANOMALY   = 13.3500

EPHEMERIS_TYPE = 0
CLASSIFICATION_TYPE = U
NORAD_CAT_ID   = 67514
ELEMENT_SET_NO = 999
REV_AT_EPOCH   = 1
BSTAR          = 0
MEAN_MOTION_DOT = -.2725E-4
MEAN_MOTION_DDOT = .8614162E-5

CCSDS_OMM_VERS = 2.0
CREATION_DATE  = 
ORIGINATOR     = 

OBJECT_NAME    = STARLINK-36543
OBJECT_ID      = 2026-012Y
CENTER_NAME    = EARTH
REF_FRAME      = TEME
TIME_SYSTEM    = UTC
MEAN_ELEMENT_THEORY = SGP/SGP4

EPOCH          = 2026-01-19T00:25:32.539872
MEAN_MOTION    = 16.05267929
ECCENTRICITY   = .00077
INCLINATION    = 43.0100
RA_OF_ASC_NODE = 248.3700
ARG_OF_PERICENTER = 319.9700
MEAN_ANOMALY   = 13.3500

EPHEMERIS_TYPE = 0
CLASSIFICATION_TYPE = U
NORAD_CAT_ID   = 67515
ELEMENT_SET_NO = 999
REV_AT_EPOCH   = 1
BSTAR          = 0
MEAN_MOTION_DOT = -.2725E-4
MEAN_MOTION_DDOT = .8614162E-5

CCSDS_OMM_VERS = 2.0
CREATION_DATE  = 
ORIGINATOR     = 

OBJECT_NAME    = STARLINK-36537
OBJECT_ID      = 2026-012Z
CENTER_NAME    = EARTH
REF_FRAME      = TEME
TIME_SYSTEM    = UTC
MEAN_ELEMENT_THEORY = SGP/SGP4

EPOCH          = 2026-01-19T00:25:32.539872
MEAN_MOTION    = 16.05267929
ECCENTRICITY   = .00077
INCLINATION    = 43.0100
RA_OF_ASC_NODE = 248.3700
ARG_OF_PERICENTER = 319.9700
MEAN_ANOMALY   = 13.3500

EPHEMERIS_TYPE = 0
CLASSIFICATION_TYPE = U
NORAD_CAT_ID   = 67516
ELEMENT_SET_NO = 999
REV_AT_EPOCH   = 1
BSTAR          = 0
MEAN_MOTION_DOT = -.2725E-4
MEAN_MOTION_DDOT = .8614162E-5

CCSDS_OMM_VERS = 2.0
CREATION_DATE  = 
ORIGINATOR     = 

OBJECT_NAME    = STARLINK-36544
OBJECT_ID      = 2026-012AA
CENTER_NAME    = EARTH
REF_FRAME      = TEME
TIME_SYSTEM    = UTC
MEAN_ELEMENT_THEORY = SGP/SGP4

EPOCH          = 2026-01-19T00:25:32.539872
MEAN_MOTION    = 16.05267929
ECCENTRICITY   = .00077
INCLINATION    = 43.0100
RA_OF_ASC_NODE = 248.3700
ARG_OF_PERICENTER = 319.9700
MEAN_ANOMALY   = 13.3500

EPHEMERIS_TYPE = 0
CLASSIFICATION_TYPE = U
NORAD_CAT_ID   = 67517
ELEMENT_SET_NO = 999
REV_AT_EPOCH   = 1
BSTAR          = 0
MEAN_MOTION_DOT = -.2725E-4
MEAN_MOTION_DDOT = .8614162E-5

CCSDS_OMM_VERS = 2.0
CREATION_DATE  = 
ORIGINATOR     = 

OBJECT_NAME    = STARLINK-36412
OBJECT_ID      = 2026-012AB
CENTER_NAME    = EARTH
REF_FRAME      = TEME
TIME_SYSTEM    = UTC
MEAN_ELEMENT_THEORY = SGP/SGP4

EPOCH          = 2026-01-19T00:25:32.539872
MEAN_MOTION    = 16.05267929
ECCENTRICITY   = .00077
INCLINATION    = 43.0100
RA_OF_ASC_NODE = 248.3700
ARG_OF_PERICENTER = 319.9700
MEAN_ANOMALY   = 13.3500

EPHEMERIS_TYPE = 0
CLASSIFICATION_TYPE = U
NORAD_CAT_ID   = 67518
ELEMENT_SET_NO = 999
REV_AT_EPOCH   = 1
BSTAR          = 0
MEAN_MOTION_DOT = -.2725E-4
MEAN_MOTION_DDOT = .8614162E-5

CCSDS_OMM_VERS = 2.0
CREATION_DATE  = 
ORIGINATOR     = 

OBJECT_NAME    = STARLINK-36415
OBJECT_ID      = 2026-012AC
CENTER_NAME    = EARTH
REF_FRAME      = TEME
TIME_SYSTEM    = UTC
MEAN_ELEMENT_THEORY = SGP/SGP4

EPOCH          = 2026-01-19T00:25:32.539872
MEAN_MOTION    = 16.05267929
ECCENTRICITY   = .00077
INCLINATION    = 43.0100
RA_OF_ASC_NODE = 248.3700
ARG_OF_PERICENTER = 319.9700
MEAN_ANOMALY   = 13.3500

EPHEMERIS_TYPE = 0
CLASSIFICATION_TYPE = U
NORAD_CAT_ID   = 67519
ELEMENT_SET_NO = 999
REV_AT_EPOCH   = 1
BSTAR          = 0
MEAN_MOTION_DOT = -.2725E-4
MEAN_MOTION_DDOT = .8614162E-5

CCSDS_OMM_VERS = 2.0
CREATION_DATE  = 
ORIGINATOR     = 

OBJECT_NAME    = STARLINK-36547
OBJECT_ID      = 2026-012AD
CENTER_NAME    = EARTH
REF_FRAME      = TEME
TIME_SYSTEM    = UTC
MEAN_ELEMENT_THEORY = SGP/SGP4

EPOCH          = 2026-01-19T00:25:32.539872
MEAN_MOTION    = 16.05267929
ECCENTRICITY   = .00077
INCLINATION    = 43.0100
RA_OF_ASC_NODE = 248.3700
ARG_OF_PERICENTER = 319.9700
MEAN_ANOMALY   = 13.3500

EPHEMERIS_TYPE = 0
CLASSIFICATION_TYPE = U
NORAD_CAT_ID   = 67520
ELEMENT_SET_NO = 999
REV_AT_EPOCH   = 1
BSTAR          = 0
MEAN_MOTION_DOT = -.2725E-4
MEAN_MOTION_DDOT = .8614162E-5

CCSDS_OMM_VERS = 2.0
CREATION_DATE  = 
ORIGINATOR     = 

OBJECT_NAME    = STARLINK-36444
OBJECT_ID      = 2026-012AE
CENTER_NAME    = EARTH
REF_FRAME      = TEME
TIME_SYSTEM    = UTC
MEAN_ELEMENT_THEORY = SGP/SGP4

EPOCH          = 2026-01-19T00:25:32.539872
MEAN_MOTION    = 16.05267929
ECCENTRICITY   = .00077
INCLINATION    = 43.0100
RA_OF_ASC_NODE = 248.3700
ARG_OF_PERICENTER = 319.9700
MEAN_ANOMALY   = 13.3500

EPHEMERIS_TYPE = 0
CLASSIFICATION_TYPE = U
NORAD_CAT_ID   = 67521
ELEMENT_SET_NO = 999
REV_AT_EPOCH   = 1
BSTAR          = 0
MEAN_MOTION_DOT = -.2725E-4
MEAN_MOTION_DDOT = .8614162E-5

CCSDS_OMM_VERS = 2.0
CREATION_DATE  = 
ORIGINATOR     = 

OBJECT_NAME    = HULIANWANG DIGUI-146
OBJECT_ID      = 2026-013A
CENTER_NAME    = EARTH
REF_FRAME      = TEME
TIME_SYSTEM    = UTC
MEAN_ELEMENT_THEORY = SGP/SGP4

EPOCH          = 2026-01-25T03:52:01.612992
MEAN_MOTION    = 13.97472598
ECCENTRICITY   = .0011563
INCLINATION    = 50.0076
RA_OF_ASC_NODE = 161.6326
ARG_OF_PERICENTER = 254.8743
MEAN_ANOMALY   = 105.0879

EPHEMERIS_TYPE = 0
CLASSIFICATION_TYPE = U
NORAD_CAT_ID   = 67522
ELEMENT_SET_NO = 999
REV_AT_EPOCH   = 82
BSTAR          = .22614E-3
MEAN_MOTION_DOT = .171E-5
MEAN_MOTION_DDOT = 0

CCSDS_OMM_VERS = 2.0
CREATION_DATE  = 
ORIGINATOR     = 

OBJECT_NAME    = HULIANWANG DIGUI-147
OBJECT_ID      = 2026-013B
CENTER_NAME    = EARTH
REF_FRAME      = TEME
TIME_SYSTEM    = UTC
MEAN_ELEMENT_THEORY = SGP/SGP4

EPOCH          = 2026-01-21T17:28:53.861952
MEAN_MOTION    = 13.97588994
ECCENTRICITY   = .00153284
INCLINATION    = 49.9994
RA_OF_ASC_NODE = 175.4584
ARG_OF_PERICENTER = 243.7764
MEAN_ANOMALY   = 116.1562

EPHEMERIS_TYPE = 0
CLASSIFICATION_TYPE = U
NORAD_CAT_ID   = 67523
ELEMENT_SET_NO = 999
REV_AT_EPOCH   = 34
BSTAR          = .9329998E-5
MEAN_MOTION_DOT = -.136E-5
MEAN_MOTION_DDOT = 0

